01018   11.1   0.15 K194R 350.17004  343.08239  359.62787    7.63343  0.2439798  0.24327614   2.5413806  0 MPO473776  2434  34 1924-2019 0.38 M-v 38h Williams   0000   (1018) Arnolda            20190509
01019   12.5   0.15 K194R 254.31693  122.08465  144.40613   26.97750  0.0712245  0.37294667   1.9114879  0 MPO473776  2079  28 1924-2019 0.35 M-v 38h MPCLINUX   0006   (1019) Strackea           20190625
01020   12.1   0.15 K194R 103.72202   36.79343  180.68993    4.05970  0.0441042  0.21164564   2.7886660  0 MPO473776  2404  30 1924-2018 0.46 M-v 38h Williams   0000   (1020) Arcadia            20181012
01021    9.1   0.15 K194R  97.97821  286.90869  115.43770   15.87075  0.2854555  0.21775239   2.7362814  0 MPO473776  2288  43 1928-2019 0.37 M-v 38h MPCLINUX   0000   (1021) Flammario          20190725
01022   10.2   0.15 K194R  94.48248  124.70602  111.96302   21.05724  0.1746215  0.20988325   2.8042551  0 MPO473776  2059  38 1910-2018 0.37 M-v 38h Williams   0000   (1022) Olympiada          20181217
01023   10.0   0.15 K194R 211.80055  194.26442  194.29202   10.06584  0.0998327  0.17442459   3.1724704  0 MPO473776  2154  37 1924-2019 0.41 M-v 38h Williams   0000   (1023) Thomana            20190511
01024   10.8   0.15 K194R 255.04181  307.76418   58.85765   16.08449  0.2227581  0.20267445   2.8703623  0 MPO473776  2367  32 1928-2019 0.39 M-v 38h Williams   0000   (1024) Hale               20190513
01025   12.5   0.15 K194R 314.85857  348.92110  163.37994   26.86096  0.0392931  0.35398134   1.9791671  0 MPO467621  2129  27 1923-2019 0.41 M-v 38h MPCLINUX   0006   (1025) Riema              20190418
01026   12.6   0.15 K194R 107.15353  212.43960  104.57628    5.40006  0.1813984  0.29114235   2.2545807  0 MPO467621  2180  26 1923-2019 0.41 M-v 38h MPCLINUX   0000   (1026) Ingrid             20190411
01027   10.9   0.15 K194R 262.52476  132.12109   29.36112    1.25314  0.1295864  0.17596869   3.1538845  0 MPO473776  2712  43 1908-2019 0.44 M-v 38h Williams   0000   (1027) Aesculapia         20190218
01028    9.3   0.15 K194R  49.50570   24.60886   62.83190    9.39396  0.1058940  0.15680329   3.4059055  0 MPO473776  2319  42 1907-2019 0.38 M-v 38h MPCLINUX   0000   (1028) Lydina             20190701
01029   10.9   0.15 K194R 168.93204  141.66918   29.89163    2.42520  0.0282136  0.20072753   2.8888928  0 MPO473776  2298  41 1916-2018 0.44 M-v 38h Williams   0000   (1029) La Plata           20181209
01030   10.3   0.15 K194R 110.97412    5.83102  187.82454   14.77925  0.1232757  0.17899100   3.1182811  0 MPO473776  2185  35 1931-2019 0.42 M-v 38h Williams   0000   (1030) Vitja              20190509
01031    9.5   0.15 K194R  30.26065  307.79408  218.91923   17.63458  0.0562463  0.18527105   3.0474109  0 MPO473776  2098  32 1924-2019 0.39 M-v 38h Williams   0000   (1031) Arctica            20190511
01032   10.1   0.15 K194R  28.80193  188.93541   76.31317    9.48424  0.1427786  0.17816167   3.1279505  0 MPO473776  2417  43 1929-2019 0.39 M-v 38h Williams   0000   (1032) Pafuri             20190408
01033   11.1   0.15 K194R  22.03525  217.76636  188.95046   10.66281  0.1179692  0.18949670   3.0019373  0 MPO467622  2254  29 1937-2019 0.40 M-v 38h MPCLINUX   0000   (1033) Simona             20190315
01034   12.1   0.15 K194R 113.35995   18.86196  304.48512    3.97148  0.2631266  0.28387831   2.2928796  0 MPO467622  2281  28 1924-2019 0.43 M-v 38h MPCLINUX   0000   (1034) Mozartia           20190504
01035   10.3   0.15 K194R  22.63487  324.60787    1.89678   18.00495  0.1895703  0.17618974   3.1512460  0 MPO473777  1737  31 1913-2018 0.39 M-v 38h Williams   0000   (1035) Amata              20181217
01036    9.4   0.15 K194R 274.15620  132.39633  215.55752   26.68762  0.5332347  0.22665599   2.6641454  0 MPO473777  5781  58 1924-2019 0.42 M-v 38h Williams   1804   (1036) Ganymed            20190511
01037   13.6   0.15 K194R 346.66356  169.78592  200.66758    5.89994  0.1905154  0.29109996   2.2547996  0 MPO473777  1737  24 1924-2018 0.45 M-v 38h Williams   0000   (1037) Davidweilla        20180917
01038   10.82  0.15 K194R  55.34757  304.97058   57.76644    9.18369  0.2208649  0.12394658   3.9839422  0 MPO467622  1933  30 1924-2019 0.41 M-v 38h MPCLINUX   0008   (1038) Tuckia             20190414
01039   11.4   0.15 K194R  55.72229  327.81779  221.72733    4.55466  0.0600765  0.22441433   2.6818572  0 MPO473777  2430  40 1924-2019 0.40 M-v 38h Williams   0000   (1039) Sonneberga         20190819
01040   10.4   0.15 K194R  76.01134  157.92853  280.17014   16.68993  0.1920744  0.17956141   3.1116737  0 MPO473777  1962  26 1925-2019 0.34 M-v 38h MPCLINUX   0000   (1040) Klumpkea           20190722
01041   10.1   0.15 K194R 313.23215  344.17091   60.00212   13.93590  0.1441137  0.18309641   3.0714927  0 MPO473777  2091  33 1906-2018 0.37 M-v 38h Williams   0000   (1041) Asta               20181203
01042    9.9   0.15 K194R 320.93538  297.84835   52.41842   20.71395  0.0876492  0.16946089   3.2341220  0 MPO473777  2470  32 1925-2019 0.35 M-v 38h Williams   0000   (1042) Amazone            20190425
01043    9.6   0.15 K194R   2.01401  156.36620  159.19205    8.92230  0.0386906  0.18128452   3.0919247  0 MPO473777  2460  45 1925-2019 0.44 M-v 38h Williams   0000   (1043) Beate              20190509
01044   10.8   0.15 K194R 290.51027  228.39895   59.96186    4.25143  0.1445887  0.23849197   2.5752548  0 MPO473777  2367  45 1907-2019 0.42 M-v 38h Williams   0000   (1044) Teutonia           20190511
01045   13.0   0.15 K194R   8.90112  166.91351  267.68078    0.26480  0.1598700  0.27211795   2.3584749  0 MPO467622  2587  29 1953-2019 0.45 M-v 38h MPCLINUX   0000   (1045) Michela            20190411
01046   10.7   0.15 K194R 130.55918   47.73929   10.74212    7.89925  0.0647022  0.19132783   2.9827530  0 MPO473777  2413  35 1926-2019 0.39 M-v 38h MPCLINUX   0000   (1046) Edwin              20190801
01047   12.0   0.15 K194R  73.25705  300.38003   78.22224    5.66693  0.1927609  0.29381005   2.2409128  0 MPO473777  2446  35 1924-2019 0.40 M-v 38h MPCLINUX   0000   (1047) Geisha             20190516
01048    9.7   0.15 K194R 166.93611  183.44043   52.76630   15.80887  0.1805829  0.21818251   2.7326840  0 MPO473777  2077  45 1927-2019 0.41 M-v 38h Williams   0000   (1048) Feodosia           20190222
01049   10.4   0.15 K194R  43.77849   41.13748  342.85073   15.10679  0.1362451  0.18107693   3.0942873  0 MPO467622  1956  35 1952-2019 0.41 M-v 38h MPCLINUX   0000   (1049) Gotho              20190421
01050   12.2   0.15 K194R 325.80618   66.33331  342.31851   12.49719  0.1775056  0.23176145   2.6248747  0 MPO473777  1725  30 1908-2018 0.41 M-v 38h Williams   0000   (1050) Meta               20181217
01051   10.1   0.15 K194R  93.80047  153.01011  180.71391   23.50336  0.0997190  0.17097031   3.2150588  0 MPO467622  2415  36 1925-2019 0.40 M-v 38h MPCLINUX   0000   (1051) Merope             20190405
01052   11.9   0.15 K194R 355.96123  297.94771   99.57649    4.69707  0.1435457  0.29477844   2.2360022  0 MPO473777  2280  39 1925-2019 0.40 M-v 38h Williams   0000   (1052) Belgica            20190104
01053   12.3   0.15 K194R  13.53965   42.38785   17.58851    8.33952  0.0967655  0.23308693   2.6149142  0 MPO467622  2202  28 1925-2019 0.43 M-v 38h MPCLINUX   0000   (1053) Vigdis             20190330
01054   10.4   0.15 K194R 281.98933  295.29249   85.77307   10.87169  0.1339017  0.19722459   2.9229990  0 MPO473777  2540  38 1925-2019 0.37 M-v 38h Williams   0000   (1054) Forsytia           20190508
01055   12.1   0.15 K194R 310.93164  176.50776  147.13237    5.27722  0.2081590  0.30227708   2.1988684  0 MPO473777  2476  34 1902-2019 0.42 M-v 38h Williams   0000   (1055) Tynka              20190823
01056   11.6   0.15 K194R  43.86668  212.40215  104.13901    5.42772  0.1778109  0.29598316   2.2299308  0 MPO473777  2739  34 1928-2018 0.41 M-v 38h Williams   0000   (1056) Azalea             20181201
01057   11.0   0.15 K194R 343.65421  114.67893  257.89431    3.54039  0.2464439  0.20025302   2.8934545  0 MPO473777  2357  35 1925-2018 0.42 M-v 38h Williams   0000   (1057) Wanda              20181119
01058   11.7   0.15 K194R 270.71538   94.43043  221.74616    3.69313  0.1877366  0.30282638   2.1962085  0 MPO473777  2342  31 1932-2019 0.40 M-v 38h Williams   0000   (1058) Grubba             20190511
01059   10.9   0.15 K194R 308.65491   87.99007  200.37286   10.09636  0.1884553  0.22960619   2.6412752  0 MPO473777  2478  34 1920-2019 0.39 M-v 38h Williams   0000   (1059) Mussorgskia        20190511
01060   12.6   0.15 K194R   9.11063   84.63944  221.13019    5.91870  0.2019848  0.29444855   2.2376721  0 MPO473777  2040  33 1925-2018 0.43 M-v 38h Williams   0000   (1060) Magnolia           20180725
01061   11.8   0.15 K194R 320.83248  306.38337   90.92257    2.49945  0.2160562  0.17855502   3.1233549  0 MPO473777  1870  37 1925-2018 0.49 M-v 38h Williams   0000   (1061) Paeonia            20181121
01062    9.8   0.15 K194R 294.76522  101.16873  341.39612    5.59553  0.0699225  0.18917011   3.0053914  0 MPO473777  2118  40 1930-2019 0.39 M-v 38h Williams   0000   (1062) Ljuba              20190109
01063   11.2   0.15 K194R  51.26330  107.68158   95.31917    5.97384  0.0402116  0.27985662   2.3147939  0 MPO473777  2474  34 1926-2019 0.41 M-v 38h Williams   0000   (1063) Aquilegia          20190508
01064   10.6   0.15 K194R 311.67213   20.33656  280.56175    9.50314  0.1774379  0.24298990   2.5433760  0 MPO473777  2036  41 1926-2019 0.40 M-v 38h Williams   0000   (1064) Aethusa            20190510
01065   12.1   0.15 K194R 201.76972  353.65215  330.32429    8.36285  0.2971405  0.27180653   2.3602760  0 MPO473777  2145  30 1926-2019 0.38 M-v 38h MPCLINUX   0005   (1065) Amundsenia         20190625
01066   12.2   0.15 K194R 305.11709   17.09360  345.03433    4.81756  0.2080182  0.26457088   2.4031158  0 MPO473777  2047  35 1930-2019 0.45 M-v 38h Williams   0000   (1066) Lobelia            20190506
